IRIDIUM 119             
1 42959U 17061E   24140.60335338  .00000808  00000+0  28128-3 0  9995
2 42959  86.3968 342.2698 0002051  81.9432 278.1996 14.34222357346086
IRIDIUM 107             
1 42960U 17061F   24140.62239040  .00000806  00000+0  28067-3 0  9992
2 42960  86.3969 342.2785 0001929  84.7562 275.3854 14.34221214346098
IRIDIUM 132             
1 42961U 17061G   24140.83804055  .00000804  00000+0  28006-3 0  9991
2 42961  86.3970 342.1733 0001773  87.4788 272.6610 14.34219826346120
IRIDIUM 136             
1 42962U 17061H   24140.59066490  .00000048  00000+0  10213-4 0  9990
2 42962  86.3970 342.2802 0002283  78.8873 281.2580 14.34213331346100
IRIDIUM 139             
1 42963U 17061J   24140.59700207  .00000476  00000+0  16294-3 0  9991
2 42963  86.3970 342.3268 0001763  86.0936 274.0461 14.34220225346110
IRIDIUM 125             
1 42964U 17061K   24140.65408989  .00000083  00000+0  22480-4 0  9990
2 42964  86.3974 342.3501 0002133  77.0917 283.0517 14.34218825346133
IRIDIUM 135             
1 43070U 17083A   24140.83752735  .00000096  00000+0  27235-4 0  9991
2 43070  86.3940 278.9211 0002258 106.3523 253.7921 14.34215248335456
IRIDIUM 138             
1 43071U 17083B   24140.58381800  .00000052  00000+0  11678-4 0  9991
2 43071  86.3927 278.7484 0002150  87.2388 272.9054 14.34219797335407
